Satellite: PHARMSAT
Catalog number: 35002
Epoch time:      09267.68883938
Element set:     101
Inclination:      040.4699 deg
RA of node:       004.7396 deg
Eccentricity:    0.0026619
Arg of perigee:   188.7586 deg
Mean anomaly:     171.2767 deg
Mean motion:   15.39949571 rev/day
Decay rate:      2.253e-05 rev/day^2
Epoch rev:            1968
Checksum:              345

Satellite: HAWKSAT1
Catalog number: 35003
Epoch time:      09266.67122187
Element set:     105
Inclination:      040.4631 deg
RA of node:       010.1201 deg
Eccentricity:    0.0026214
Arg of perigee:   185.0812 deg
Mean anomaly:     174.9742 deg
Mean motion:   15.40694234 rev/day
Decay rate:      4.531e-05 rev/day^2
Epoch rev:            1954
Checksum:              250

Satellite: CP6
Catalog number: 35004
Epoch time:      09266.66990159
Element set:      99
Inclination:      040.4607 deg
RA of node:       010.1109 deg
Eccentricity:    0.0025561
Arg of perigee:   184.5654 deg
Mean anomaly:     175.4935 deg
Mean motion:   15.40762201 rev/day
Decay rate:      5.363e-05 rev/day^2
Epoch rev:            1953
Checksum:              294

Satellite: AEROCUB3
Catalog number: 35005
Epoch time:      09267.20387752
Element set:     100
Inclination:      040.4747 deg
RA of node:       007.2635 deg
Eccentricity:    0.0025612
Arg of perigee:   185.9443 deg
Mean anomaly:     174.1073 deg
Mean motion:   15.40556961 rev/day
Decay rate:      4.854e-05 rev/day^2
Epoch rev:            1961
Checksum:              285

Satellite: DRAGNSAT
Catalog number: 35690
Epoch time:      09267.13185014
Element set:      53
Inclination:      051.6396 deg
RA of node:       155.5580 deg
Eccentricity:    0.0002188
Arg of perigee:   283.2389 deg
Mean anomaly:     076.8367 deg
Mean motion:   15.82789980 rev/day
Decay rate:     2.9262e-04 rev/day^2
Epoch rev:             880
Checksum:              329

Satellite: POLLUX
Catalog number: 35693
Epoch time:      09267.15150619
Element set:      55
Inclination:      051.6398 deg
RA of node:       155.6978 deg
Eccentricity:    0.0002999
Arg of perigee:   202.5979 deg
Mean anomaly:     157.5010 deg
Mean motion:   15.82117463 rev/day
Decay rate:     2.5324e-04 rev/day^2
Epoch rev:             877
Checksum:              326

Satellite: CASTOR
Catalog number: 35694
Epoch time:      09267.80341062
Element set:      53
Inclination:      051.6408 deg
RA of node:       152.5617 deg
Eccentricity:    0.0003143
Arg of perigee:   214.4095 deg
Mean anomaly:     145.6690 deg
Mean motion:   15.81064969 rev/day
Decay rate:     1.3764e-04 rev/day^2
Epoch rev:             887
Checksum:              301

Satellite: METEOR-M
Catalog number: 35865
Epoch time:      09267.76253122
Element set:       8
Inclination:      098.8003 deg
RA of node:       317.9196 deg
Eccentricity:    0.0003392
Arg of perigee:   063.6114 deg
Mean anomaly:     296.5400 deg
Mean motion:   14.21825734 rev/day
Decay rate:       1.76e-06 rev/day^2
Epoch rev:             100
Checksum:              277

Satellite: OBJECT-B
Catalog number: 35866
Epoch time:      09267.76020534
Element set:       9
Inclination:      098.8007 deg
RA of node:       317.9269 deg
Eccentricity:    0.0004133
Arg of perigee:   060.3718 deg
Mean anomaly:     299.7853 deg
Mean motion:   14.22295747 rev/day
Decay rate:       1.78e-06 rev/day^2
Epoch rev:             100
Checksum:              306

